{"type": "FeatureCollection", "features": [ {"type": "Feature", "properties": {"norad_id": 33153, "name": "INTELSAT 25 (IS-25)", "group": "intelsat", "lat": 1.5663658273353733, "lon": -143.0644777720747, "alt_km": 35770.57905374736, "timestamp": "2025-12-07T11:27:49.655507+00:00", "meta": {"OBJECT_NAME": "INTELSAT 25 (IS-25)", "OBJECT_ID": "2008-034A", "EPOCH": "2025-12-06T22:04:38.347392", "MEAN_MOTION": 1.00270664, "ECCENTRICITY": 0.0005449, "INCLINATION": 2.2121, "RA_OF_ASC_NODE": 82.7106, "ARG_OF_PERICENTER": 181.5704, "MEAN_ANOMALY": 111.3387, "EPHEMERIS_TYPE": 0, "CLASSIFICATION_TYPE": "U", "NORAD_CAT_ID": 33153, "ELEMENT_SET_NO": 999, "REV_AT_EPOCH": 6376, "BSTAR": 0, "MEAN_MOTION_DOT": -2.19e-06, "MEAN_MOTION_DDOT": 0}, "tle": {"line1": "1 33153U 08034A   25340.91988828 -.00000219  00000+0  00000+0 0  9998", "line2": "2 33153   2.2121  82.7106 0005449 181.5704 111.3387  1.00270664 63769"}}, "geometry": {"type": "Point", "coordinates": [-143.0644777720747, 1.5663658273353733]}}, {"type": "Feature", "properties": {"norad_id": 33376, "name": "GALAXY 19 (G-19)", "group": "intelsat", "lat": 0.021159783162384895, "lon": 151.41570841334024, "alt_km": 35792.84027207713, "timestamp": "2025-12-07T11:27:49.655519+00:00", "meta": {"OBJECT_NAME": "GALAXY 19 (G-19)", "OBJECT_ID": "2008-045A", "EPOCH": "2025-12-06T21:45:55.142208", "MEAN_MOTION": 1.00270671, "ECCENTRICITY": 0.00034498, "INCLINATION": 0.0242, "RA_OF_ASC_NODE": 66.0477, "ARG_OF_PERICENTER": 201.5792, "MEAN_ANOMALY": 37.7949, "EPHEMERIS_TYPE": 0, "CLASSIFICATION_TYPE": "U", "NORAD_CAT_ID": 33376, "ELEMENT_SET_NO": 999, "REV_AT_EPOCH": 6297, "BSTAR": 0, "MEAN_MOTION_DOT": -1.33e-06, "MEAN_MOTION_DDOT": 0}, "tle": {"line1": "1 33376U 08045A   25340.90688822 -.00000133  00000+0  00000+0 0  9992", "line2": "2 33376   0.0242  66.0477 0003449 201.5792  37.7949  1.00270671 62975"}}, "geometry": {"type": "Point", "coordinates": [151.41570841334024, 0.021159783162384895]}}, {"type": "Feature", "properties": {"norad_id": 35493, "name": "FM-5", "group": "intelsat", "lat": -0.018250273530849556, "lon": 162.319901395638, "alt_km": 35781.54287726926, "timestamp": "2025-12-07T11:27:49.655531+00:00", "meta": {"OBJECT_NAME": "FM-5", "OBJECT_ID": "2009-034A", "EPOCH": "2025-12-06T21:49:02.343360", "MEAN_MOTION": 1.00277728, "ECCENTRICITY": 7.015e-05, "INCLINATION": 0.019, "RA_OF_ASC_NODE": 289.05, "ARG_OF_PERICENTER": 225.4492, "MEAN_ANOMALY": 162.5579, "EPHEMERIS_TYPE": 0, "CLASSIFICATION_TYPE": "U", "NORAD_CAT_ID": 35493, "ELEMENT_SET_NO": 999, "REV_AT_EPOCH": 4471, "BSTAR": 0, "MEAN_MOTION_DOT": -1.95e-06, "MEAN_MOTION_DDOT": 0}, "tle": {"line1": "1 35493U 09034A   25340.90905490 -.00000195  00000+0  00000+0 0  9994", "line2": "2 35493   0.0190 289.0500 0000701 225.4492 162.5579  1.00277728 44711"}}, "geometry": {"type": "Point", "coordinates": [162.319901395638, -0.018250273530849556]}}, {"type": "Feature", "properties": {"norad_id": 36097, "name": "INTELSAT 14 (IS-14)", "group": "intelsat", "lat": -0.021479810769528256, "lon": -156.56675116131257, "alt_km": 35779.907589350594, "timestamp": "2025-12-07T11:27:49.655543+00:00", "meta": {"OBJECT_NAME": "INTELSAT 14 (IS-14)", "OBJECT_ID": "2009-064A", "EPOCH": "2025-12-06T22:00:46.218240", "MEAN_MOTION": 1.00271017, "ECCENTRICITY": 0.00027305, "INCLINATION": 0.0092, "RA_OF_ASC_NODE": 346.9491, "ARG_OF_PERICENTER": 272.5958, "MEAN_ANOMALY": 101.6074, "EPHEMERIS_TYPE": 0, "CLASSIFICATION_TYPE": "U", "NORAD_CAT_ID": 36097, "ELEMENT_SET_NO": 999, "REV_AT_EPOCH": 5867, "BSTAR": 0, "MEAN_MOTION_DOT": -2.68e-06, "MEAN_MOTION_DDOT": 0}, "tle": {"line1": "1 36097U 09064A   25340.91720160 -.00000268  00000+0  00000+0 0  9999", "line2": "2 36097   0.0092 346.9491 0002730 272.5958 101.6074  1.00271017 58678"}}, "geometry": {"type": "Point", "coordinates": [-156.56675116131257, -0.021479810769528256]}}, {"type": "Feature", "properties": {"norad_id": 36106, "name": "INTELSAT 15 (IS-15)", "group": "intelsat", "lat": -0.0037898255473044432, "lon": -26.36832300522615, "alt_km": 35783.49646554603, "timestamp": "2025-12-07T11:27:49.655555+00:00", "meta": {"OBJECT_NAME": "INTELSAT 15 (IS-15)", "OBJECT_ID": "2009-067A", "EPOCH": "2025-12-06T20:37:38.577792", "MEAN_MOTION": 1.00270349, "ECCENTRICITY": 0.00025085, "INCLINATION": 0.0163, "RA_OF_ASC_NODE": 339.434, "ARG_OF_PERICENTER": 280.7343, "MEAN_ANOMALY": 210.2915, "EPHEMERIS_TYPE": 0, "CLASSIFICATION_TYPE": "U", "NORAD_CAT_ID": 36106, "ELEMENT_SET_NO": 999, "REV_AT_EPOCH": 3930, "BSTAR": 0, "MEAN_MOTION_DOT": -1.79e-06, "MEAN_MOTION_DDOT": 0}, "tle": {"line1": "1 36106U 09067A   25340.85947428 -.00000179  00000+0  00000+0 0  9995", "line2": "2 36106   0.0163 339.4340 0002508 280.7343 210.2915  1.00270349 39307"}}, "geometry": {"type": "Point", "coordinates": [-26.36832300522615, -0.0037898255473044432]}}, {"type": "Feature", "properties": {"norad_id": 36131, "name": "DIRECTV 12", "group": "intelsat", "lat": 0.025927076098463234, "lon": 145.7291482311649, "alt_km": 35787.81897610117, "timestamp": "2025-12-07T11:27:49.655567+00:00", "meta": {"OBJECT_NAME": "DIRECTV 12", "OBJECT_ID": "2009-075A", "EPOCH": "2025-12-06T14:53:20.048352", "MEAN_MOTION": 1.00272184, "ECCENTRICITY": 4.645e-05, "INCLINATION": 0.0503, "RA_OF_ASC_NODE": 138.3397, "ARG_OF_PERICENTER": 206.243, "MEAN_ANOMALY": 211.6829, "EPHEMERIS_TYPE": 0, "CLASSIFICATION_TYPE": "U", "NORAD_CAT_ID": 36131, "ELEMENT_SET_NO": 999, "REV_AT_EPOCH": 4462, "BSTAR": 0, "MEAN_MOTION_DOT": -9.7e-07, "MEAN_MOTION_DDOT": 0}, "tle": {"line1": "1 36131U 09075A   25340.62037093 -.00000097  00000+0  00000+0 0  9994", "line2": "2 36131   0.0503 138.3397 0000464 206.2430 211.6829  1.00272184 44629"}}, "geometry": {"type": "Point", "coordinates": [145.7291482311649, 0.025927076098463234]}}, {"type": "Feature", "properties": {"norad_id": 36397, "name": "INTELSAT 16 (IS-16)", "group": "intelsat", "lat": -0.015538501648806853, "lon": 172.22585853961903, "alt_km": 35785.73154891289, "timestamp": "2025-12-07T11:27:49.655579+00:00", "meta": {"OBJECT_NAME": "INTELSAT 16 (IS-16)", "OBJECT_ID": "2010-006A", "EPOCH": "2025-12-06T21:51:47.078784", "MEAN_MOTION": 1.00271089, "ECCENTRICITY": 0.00023508, "INCLINATION": 0.0123, "RA_OF_ASC_NODE": 315.5734, "ARG_OF_PERICENTER": 303.2099, "MEAN_ANOMALY": 68.9098, "EPHEMERIS_TYPE": 0, "CLASSIFICATION_TYPE": "U", "NORAD_CAT_ID": 36397, "ELEMENT_SET_NO": 999, "REV_AT_EPOCH": 5772, "BSTAR": 0, "MEAN_MOTION_DOT": -2.39e-06, "MEAN_MOTION_DDOT": 0}, "tle": {"line1": "1 36397U 10006A   25340.91096156 -.00000239  00000+0  00000+0 0  9999", "line2": "2 36397   0.0123 315.5734 0002350 303.2099  68.9098  1.00271089 57729"}}, "geometry": {"type": "Point", "coordinates": [172.22585853961903, -0.015538501648806853]}}, {"type": "Feature", "properties": {"norad_id": 37185, "name": "XM-5", "group": "intelsat", "lat": -0.029850782290806153, "lon": 133.2442739928536, "alt_km": 35780.76240126107, "timestamp": "2025-12-07T11:27:49.655591+00:00", "meta": {"OBJECT_NAME": "XM-5", "OBJECT_ID": "2010-053A", "EPOCH": "2025-12-06T21:40:40.643616", "MEAN_MOTION": 1.00268224, "ECCENTRICITY": 0.0001708, "INCLINATION": 0.0621, "RA_OF_ASC_NODE": 273.0037, "ARG_OF_PERICENTER": 248.6895, "MEAN_ANOMALY": 124.2219, "EPHEMERIS_TYPE": 0, "CLASSIFICATION_TYPE": "U", "NORAD_CAT_ID": 37185, "ELEMENT_SET_NO": 999, "REV_AT_EPOCH": 5555, "BSTAR": 0, "MEAN_MOTION_DOT": -1.7e-07, "MEAN_MOTION_DDOT": 0}, "tle": {"line1": "1 37185U 10053A   25340.90324819 -.00000017  00000+0  00000+0 0  9990", "line2": "2 37185   0.0621 273.0037 0001708 248.6895 124.2219  1.00268224 55551"}}, "geometry": {"type": "Point", "coordinates": [133.2442739928536, -0.029850782290806153]}}, {"type": "Feature", "properties": {"norad_id": 37238, "name": "INTELSAT 17 (IS-17)", "group": "intelsat", "lat": -0.0033629755854510837, "lon": -45.522097982789774, "alt_km": 35781.01756844493, "timestamp": "2025-12-07T11:27:49.655603+00:00", "meta": {"OBJECT_NAME": "INTELSAT 17 (IS-17)", "OBJECT_ID": "2010-065B", "EPOCH": "2025-12-06T20:20:38.721696", "MEAN_MOTION": 1.00271728, "ECCENTRICITY": 0.00024778, "INCLINATION": 0.0083, "RA_OF_ASC_NODE": 306.513, "ARG_OF_PERICENTER": 306.6743, "MEAN_ANOMALY": 193.857, "EPHEMERIS_TYPE": 0, "CLASSIFICATION_TYPE": "U", "NORAD_CAT_ID": 37238, "ELEMENT_SET_NO": 999, "REV_AT_EPOCH": 5132, "BSTAR": 0, "MEAN_MOTION_DOT": 4e-08, "MEAN_MOTION_DDOT": 0}, "tle": {"line1": "1 37238U 10065B   25340.84767039  .00000004  00000+0  00000+0 0  9995", "line2": "2 37238   0.0083 306.5130 0002477 306.6743 193.8570  1.00271728 51325"}}, "geometry": {"type": "Point", "coordinates": [-45.522097982789774, -0.0033629755854510837]}}, {"type": "Feature", "properties": {"norad_id": 37392, "name": "INTELSAT 28 (IS-28)", "group": "intelsat", "lat": 0.9594227310310885, "lon": -143.28341355357145, "alt_km": 35774.022746879935, "timestamp": "2025-12-07T11:27:49.655615+00:00", "meta": {"OBJECT_NAME": "INTELSAT 28 (IS-28)", "OBJECT_ID": "2011-016A", "EPOCH": "2025-12-06T22:04:30.859104", "MEAN_MOTION": 1.00270517, "ECCENTRICITY": 0.00041675, "INCLINATION": 1.309, "RA_OF_ASC_NODE": 85.1265, "ARG_OF_PERICENTER": 177.3165, "MEAN_ANOMALY": 112.9305, "EPHEMERIS_TYPE": 0, "CLASSIFICATION_TYPE": "U", "NORAD_CAT_ID": 37392, "ELEMENT_SET_NO": 999, "REV_AT_EPOCH": 5135, "BSTAR": 0, "MEAN_MOTION_DOT": -2.2e-06, "MEAN_MOTION_DDOT": 0}, "tle": {"line1": "1 37392U 11016A   25340.91980161 -.00000220  00000+0  00000+0 0  9995", "line2": "2 37392   1.3090  85.1265 0004167 177.3165 112.9305  1.00270517 51352"}}, "geometry": {"type": "Point", "coordinates": [-143.28341355357145, 0.9594227310310885]}}]}